[{"OBJECT_NAME":"STARLINK-4363","OBJECT_ID":"2022-084AH","EPOCH":"2026-03-09T17:43:23.957472","MEAN_MOTION":15.01259922,"ECCENTRICITY":0.00023325,"INCLINATION":97.6035,"RA_OF_ASC_NODE":130.2478,"ARG_OF_PERICENTER":169.9042,"MEAN_ANOMALY":190.223,"EPHEMERIS_TYPE":0,"CLASSIFICATION_TYPE":"U","NORAD_CAT_ID":53220,"ELEMENT_SET_NO":999,"REV_AT_EPOCH":19984,"BSTAR":2.0360265e-5,"MEAN_MOTION_DOT":2.03e-6,"MEAN_MOTION_DDOT":0},{"OBJECT_NAME":"COSMOS 2228","OBJECT_ID":"1992-094A","EPOCH":"2026-03-09T22:06:22.986432","MEAN_MOTION":14.97191104,"ECCENTRICITY":0.00167811,"INCLINATION":82.5157,"RA_OF_ASC_NODE":237.0886,"ARG_OF_PERICENTER":303.9293,"MEAN_ANOMALY":56.0333,"EPHEMERIS_TYPE":0,"CLASSIFICATION_TYPE":"U","NORAD_CAT_ID":22286,"ELEMENT_SET_NO":999,"REV_AT_EPOCH":77609,"BSTAR":0.0002463535,"MEAN_MOTION_DOT":2.881e-5,"MEAN_MOTION_DDOT":0}]
